ONEWEB-0029             
1 45445U 20020X   25063.41289613 -.00000382  00000+0 -11134-2 0  9992
2 45445  87.8843 114.7120 0002036 103.8258 256.3097 13.11418585241080
ONEWEB-0068             
1 45446U 20020Y   25063.39412082 -.00000549  00000+0 -15846-2 0  9997
2 45446  87.8840 114.7038 0002069 102.5227 257.6133 13.11416757241022
ONEWEB-0046             
1 45447U 20020Z   25063.38577954 -.00000394  00000+0 -11488-2 0  9993
2 45447  87.8840 114.7152 0001791 107.6176 252.5147 13.11415434241031
ONEWEB-0063             
1 45448U 20020AA  25063.41462552  .00000020  00000+0  20270-4 0  9990
2 45448  87.8842 114.7080 0001671 101.3284 258.8032 13.11420910241129
ONEWEB-0019             
1 45449U 20020AB  25063.38917178 -.00000412  00000+0 -11978-2 0  9996
2 45449  87.8844 114.7268 0001895  94.4010 265.7335 13.11415727240961
ONEWEB-0094             
1 45450U 20020AC  25063.46419036  .00000005  00000+0 -20142-4 0  9999
2 45450  87.9019  99.4141 0001899  97.4926 262.6422 13.17647755244455
ONEWEB-0087             
1 45451U 20020AD  25063.50093649  .00000280  00000+0  75363-3 0  9991
2 45451  87.8836 114.6499 0002069 106.1634 253.9722 13.11419330241028
ONEWEB-0082             
1 45452U 20020AE  25063.49767808  .00000226  00000+0  60233-3 0  9995
2 45452  87.8841 114.6671 0002106  99.4189 260.7177 13.11419788241115
ONEWEB-0050             
1 45453U 20020AF  25063.20690149  .00003809  00000+0  35598-3 0  9994
2 45453  88.0033 322.1222 0001798 148.5201 211.6138 14.93913278270384
ONEWEB-0034             
1 45454U 20020AG  25063.36714181  .00000452  00000+0  12384-2 0  9993
2 45454  87.8838 114.7128 0001968  98.8622 261.2729 13.11415934241018
ONEWEB-0060             
1 45455U 20020AH  25063.40966086 -.00000194  00000+0 -58455-3 0  9997
2 45455  87.8845 114.7280 0001807 100.8912 259.2420 13.11418079240976
ONEWEB-0086             
1 45456U 20020AJ  25063.39256087 -.00000510  00000+0 -14752-2 0  9992
2 45456  87.8840 114.7070 0002219 108.0456 252.0913 13.11416156241030
ONEWEB-0088             
1 45457U 20020AK  25063.37053326  .00000262  00000+0  70412-3 0  9990
2 45457  87.8834 114.6654 0001933 104.7928 255.3414 13.11415289240969
ONEWEB-0102             
1 47258U 20100A   25063.43761501  .00000266  00000+0  70458-3 0  9992
2 47258  87.8801  84.1895 0001880  87.1448 272.9895 13.12441793203118
ONEWEB-0109             
1 47259U 20100B   25063.44570751  .00000051  00000+0  10585-3 0  9996
2 47259  87.8804  84.1556 0001932  89.1424 270.9926 13.12442790202941
ONEWEB-0110             
1 47260U 20100C   25063.47166261 -.00000372  00000+0 -10705-2 0  9999
2 47260  87.8797  84.1406 0002010  89.9327 270.2032 13.12443935203119
ONEWEB-0111             
1 47261U 20100D   25063.50250270  .00000446  00000+0  12031-2 0  9992
2 47261  87.8803  84.1438 0001904  89.8630 270.2717 13.12442137202954
ONEWEB-0114             
1 47262U 20100E   25063.45707615 -.00001393  00000+0 -39076-2 0  9999
2 47262  87.8800  84.1568 0001709  81.1099 279.0223 13.12432740202906
ONEWEB-0117             
1 47263U 20100F   25063.44894834 -.00000113  00000+0 -35078-3 0  9997
2 47263  87.8803  84.1456 0001928  92.6823 267.4526 13.12442948202910
ONEWEB-0118             
1 47264U 20100G   25063.48140684 -.00000062  00000+0 -20770-3 0  9995
2 47264  87.8802  84.1410 0001552  87.6449 272.4857 13.12444035203116
ONEWEB-0119             
1 47265U 20100H   25063.43274952  .00000417  00000+0  11232-2 0  9991
2 47265  87.8803  84.1899 0001931  90.7131 269.4218 13.12442588203087
ONEWEB-0120             
1 47266U 20100J   25063.45557164 -.00000316  00000+0 -91388-3 0  9994
2 47266  87.8806  84.1785 0001838  88.1291 272.0048 13.12439398203119
ONEWEB-0121             
1 47267U 20100K   25063.44409937  .00000077  00000+0  17791-3 0  9996
2 47267  87.8799  84.1581 0002031  92.6464 267.4897 13.12441821203027
ONEWEB-0122             
1 47268U 20100L   25063.43907977  .00000231  00000+0  60803-3 0  9997
2 47268  87.8799  84.1643 0002004  88.5695 271.5663 13.12444396202933
ONEWEB-0123             
1 47269U 20100M   25063.51060687  .00000383  00000+0  10300-2 0  9999
2 47269  87.8802  84.1729 0001811  91.8116 268.3220 13.12442081203083
ONEWEB-0124             
1 47270U 20100N   25063.49925866  .00000430  00000+0  11596-2 0  9998
2 47270  87.8802  84.1726 0001990  97.8936 262.2419 13.12442686202966
ONEWEB-0125             
1 47271U 20100P   25063.47653094 -.00000217  00000+0 -63987-3 0  9995
2 47271  87.8803  84.1389 0001730 101.0008 259.1315 13.12444220203027
ONEWEB-0126             
1 47272U 20100Q   25063.50168900  .00000465  00000+0  12575-2 0  9996
2 47272  87.8800  84.1301 0001833  87.5518 272.5821 13.12443435203092
ONEWEB-0127             
1 47273U 20100R   25063.46356397 -.00000553  00000+0 -15731-2 0  9998
2 47273  87.8806  84.1750 0001909  88.0447 272.0901 13.12440595203119
ONEWEB-0128             
1 47274U 20100S   25063.48626747  .00000098  00000+0  23620-3 0  9999
2 47274  87.8808  84.1896 0002144  90.6364 269.5010 13.12441682203134
ONEWEB-0129             
1 47275U 20100T   25063.46517591 -.00000431  00000+0 -12337-2 0  9999
2 47275  87.8804  84.1445 0001942  54.2605 305.8703 13.12443295203067
ONEWEB-0130             
1 47276U 20100U   25063.49275045  .00002399  00000+0  66300-2 0  9990
2 47276  87.8803  84.1424 0002117  90.2872 269.8499 13.12463208203039
ONEWEB-0131             
1 47277U 20100V   25063.48952049  .00000214  00000+0  55916-3 0  9992
2 47277  87.8804  84.1655 0002014  92.6739 267.4620 13.12443376203079
ONEWEB-0132             
1 47278U 20100W   25063.44247709  .00000118  00000+0  29247-3 0  9990
2 47278  87.8805  84.1766 0001983  98.8004 261.3349 13.12441716202965
ONEWEB-0133             
1 47279U 20100X   25063.45868672 -.00000358  00000+0 -10313-2 0  9991
2 47279  87.8799  84.1572 0002019  92.4004 267.7356 13.12442892203127
ONEWEB-0134             
1 47280U 20100Y   25063.50412282  .00000479  00000+0  12963-2 0  9996
2 47280  87.8797  84.1332 0002099  86.3152 273.8217 13.12442229203101
ONEWEB-0135             
1 47281U 20100Z   25063.47490990 -.00000316  00000+0 -91387-3 0  9995
2 47281  87.8803  84.1698 0002367  87.6559 272.4840 13.12443980203122
ONEWEB-0136             
1 47282U 20100AA  25063.49438578  .00000390  00000+0  10495-2 0  9992
2 47282  87.8802  84.1331 0002186  80.3069 279.8307 13.12443498203056
ONEWEB-0137             
1 47283U 20100AB  25063.45218175 -.00002845  00000+0 -79457-2 0  9990
2 47283  87.8798  84.1542 0001821  90.5441 269.5896 13.12447965202957
ONEWEB-0138             
1 47284U 20100AC  25063.50736835  .00000191  00000+0  49518-3 0  9991
2 47284  87.8798  84.1552 0001926  88.5515 271.5834 13.12439873203049
ONEWEB-0139             
1 47285U 20100AD  25063.47017155 -.00000573  00000+0 -16274-2 0  9993
2 47285  87.8805  84.1467 0001921  91.8167 268.3181 13.12441906203116
ONEWEB-0140             
1 47286U 20100AE  25063.50086256  .00000453  00000+0  12228-2 0  9996
2 47286  87.8798  84.1328 0001973  88.8875 271.2479 13.12444627203085
ONEWEB-0141             
1 47287U 20100AF  25063.46992138 -.00000374  00000+0 -10748-2 0  9996
2 47287  87.8800  84.1546 0001740  97.5716 262.5610 13.12445800203067
ONEWEB-0142             
1 47288U 20100AG  25063.43842657  .00000228  00000+0  59794-3 0  9995
2 47288  87.8800  84.1417 0001692  84.8980 275.2342 13.12442419203058
ONEWEB-0143             
1 47289U 20100AH  25063.46841528 -.00000379  00000+0 -10884-2 0  9990
2 47289  87.8801  84.1589 0001902  91.9319 268.2027 13.12443804203038
ONEWEB-0144             
1 47290U 20100AJ  25063.44084116  .00000262  00000+0  69352-3 0  9996
2 47290  87.8800  84.1466 0001852  82.2323 277.9016 13.12443150202954
ONEWEB-0145             
1 47291U 20100AK  25063.48789155  .00000170  00000+0  43682-3 0  9992
2 47291  87.8801  84.1623 0001906  88.4808 271.6539 13.12445337203150
ONEWEB-0146             
1 47292U 20100AL  25063.48465398  .00000108  00000+0  26416-3 0  9990
2 47292  87.8801  84.1487 0002124 102.6134 257.5232 13.12443535203064
ONEWEB-0147             
1 47293U 20100AM  25063.45058432 -.00000153  00000+0 -46072-3 0  9997
2 47293  87.8798  84.1396 0002138  86.4671 273.6702 13.12441738202950
ONEWEB-0115             
1 48042U 21025A   25063.46448445 -.00000183  00000+0 -53512-3 0  9995
2 48042  87.8892  53.5859 0001939  88.3811 271.7540 13.13438942191935
ONEWEB-0152             
1 48043U 21025B   25063.47747689  .00000107  00000+0  25778-3 0  9996
2 48043  87.8897  53.5918 0001977  89.0112 271.1244 13.13348994191898
ONEWEB-0153             
1 48044U 21025C   25063.45534078 -.00000432  00000+0 -12194-2 0  9991
2 48044  87.8900  53.5906 0001813  85.0471 275.0865 13.13329733191885
ONEWEB-0154             
1 48045U 21025D   25063.45211224 -.00000257  00000+0 -73999-3 0  9993
2 48045  87.8897  53.5942 0001937  86.7406 273.3944 13.13353184191846
ONEWEB-0116             
1 48046U 21025E   25063.49247192  .00001953  00000+0  53016-2 0  9990
2 48046  87.8898  53.5633 0002062  89.7670 270.3696 13.13603125191991
ONEWEB-0150             
1 48047U 21025F   25063.46772658 -.00000152  00000+0 -45172-3 0  9995
2 48047  87.8892  53.5718 0001743  83.7209 276.4119 13.13416608191880
ONEWEB-0107             
1 48048U 21025G   25063.46934284 -.00000316  00000+0 -89994-3 0  9993
2 48048  87.8892  53.5694 0001780  74.3180 285.8145 13.13408284191861
ONEWEB-0101             
1 48049U 21025H   25063.50876966  .00000925  00000+0  24984-2 0  9992
2 48049  87.8900  53.5934 0001979  82.5488 277.5866 13.13476178191844
ONEWEB-0113             
1 48050U 21025J   25063.48230007  .00000193  00000+0  49033-3 0  9991
2 48050  87.8898  53.5762 0001881  90.4059 269.7285 13.13986787191924
ONEWEB-0112             
1 48051U 21025K   25063.47423217  .00000044  00000+0  86632-4 0  9990
2 48051  87.8892  53.5655 0001825  86.8888 273.2450 13.13375858191933
